{"type": "FeatureCollection", "features": [ {"type": "Feature", "properties": {"norad_id": 34077, "name": "IRIDIUM 33 DEB", "group": "iridium-33-debris", "lat": -56.07520449453077, "lon": 40.84286168449387, "alt_km": 680.8201132413369, "timestamp": "2025-12-24T16:52:41.921187+00:00", "meta": {"OBJECT_NAME": "IRIDIUM 33 DEB", "OBJECT_ID": "1997-051CL", "EPOCH": "2025-12-24T04:17:25.303776", "MEAN_MOTION": 14.64970223, "ECCENTRICITY": 0.00088625, "INCLINATION": 86.3848, "RA_OF_ASC_NODE": 46.4676, "ARG_OF_PERICENTER": 1.8238, "MEAN_ANOMALY": 57.733, "EPHEMERIS_TYPE": 0, "CLASSIFICATION_TYPE": "U", "NORAD_CAT_ID": 34077, "ELEMENT_SET_NO": 999, "REV_AT_EPOCH": 88500, "BSTAR": 0.001451868, "MEAN_MOTION_DOT": 7.8e-05, "MEAN_MOTION_DDOT": 0}, "tle": {"line1": "1 34077U 97051CL  25358.17876509  .00007800  00000+0  14519-2 0  9995", "line2": "2 34077  86.3848  46.4676 0008862   1.8238  57.7330 14.64970223885003"}}, "geometry": {"type": "Point", "coordinates": [40.84286168449387, -56.07520449453077]}}, {"type": "Feature", "properties": {"norad_id": 34079, "name": "IRIDIUM 33 DEB", "group": "iridium-33-debris", "lat": 22.96341689439927, "lon": 4.7577201928455555, "alt_km": 615.4782684837264, "timestamp": "2025-12-24T16:52:41.921198+00:00", "meta": {"OBJECT_NAME": "IRIDIUM 33 DEB", "OBJECT_ID": "1997-051CN", "EPOCH": "2025-12-24T07:07:42.585888", "MEAN_MOTION": 14.83824008, "ECCENTRICITY": 0.00041549, "INCLINATION": 86.3775, "RA_OF_ASC_NODE": 3.4043, "ARG_OF_PERICENTER": 325.1888, "MEAN_ANOMALY": 49.2634, "EPHEMERIS_TYPE": 0, "CLASSIFICATION_TYPE": "U", "NORAD_CAT_ID": 34079, "ELEMENT_SET_NO": 999, "REV_AT_EPOCH": 89149, "BSTAR": 0.0020545843, "MEAN_MOTION_DOT": 0.00017077, "MEAN_MOTION_DDOT": 0}, "tle": {"line1": "1 34079U 97051CN  25358.29702067  .00017077  00000+0  20546-2 0  9991", "line2": "2 34079  86.3775   3.4043 0004154 325.1888  49.2634 14.83824008891491"}}, "geometry": {"type": "Point", "coordinates": [4.7577201928455555, 22.96341689439927]}}, {"type": "Feature", "properties": {"norad_id": 34088, "name": "IRIDIUM 33 DEB", "group": "iridium-33-debris", "lat": 82.1057566120857, "lon": 178.08850426154075, "alt_km": 581.0321384872568, "timestamp": "2025-12-24T16:52:41.921208+00:00", "meta": {"OBJECT_NAME": "IRIDIUM 33 DEB", "OBJECT_ID": "1997-051CX", "EPOCH": "2025-12-24T03:52:26.243040", "MEAN_MOTION": 14.91875213, "ECCENTRICITY": 0.00069452, "INCLINATION": 86.3838, "RA_OF_ASC_NODE": 25.473, "ARG_OF_PERICENTER": 140.8902, "MEAN_ANOMALY": 287.9518, "EPHEMERIS_TYPE": 0, "CLASSIFICATION_TYPE": "U", "NORAD_CAT_ID": 34088, "ELEMENT_SET_NO": 999, "REV_AT_EPOCH": 88912, "BSTAR": 0.002377824, "MEAN_MOTION_DOT": 0.0002411, "MEAN_MOTION_DDOT": 0}, "tle": {"line1": "1 34088U 97051CX  25358.16141485  .00024110  00000+0  23778-2 0  9994", "line2": "2 34088  86.3838  25.4730 0006945 140.8902 287.9518 14.91875213889129"}}, "geometry": {"type": "Point", "coordinates": [178.08850426154075, 82.1057566120857]}}, {"type": "Feature", "properties": {"norad_id": 34091, "name": "IRIDIUM 33 DEB", "group": "iridium-33-debris", "lat": -58.36765289539371, "lon": -112.68572876335256, "alt_km": 604.6532043302968, "timestamp": "2025-12-24T16:52:41.921219+00:00", "meta": {"OBJECT_NAME": "IRIDIUM 33 DEB", "OBJECT_ID": "1997-051DA", "EPOCH": "2025-12-24T04:27:55.115712", "MEAN_MOTION": 14.82638627, "ECCENTRICITY": 0.00341931, "INCLINATION": 86.341, "RA_OF_ASC_NODE": 61.5885, "ARG_OF_PERICENTER": 252.1863, "MEAN_ANOMALY": 107.5629, "EPHEMERIS_TYPE": 0, "CLASSIFICATION_TYPE": "U", "NORAD_CAT_ID": 34091, "ELEMENT_SET_NO": 999, "REV_AT_EPOCH": 88036, "BSTAR": 0.0055307973, "MEAN_MOTION_DOT": 0.00045262, "MEAN_MOTION_DDOT": 0}, "tle": {"line1": "1 34091U 97051DA  25358.18605458  .00045262  00000+0  55308-2 0  9990", "line2": "2 34091  86.3410  61.5885 0034193 252.1863 107.5629 14.82638627880363"}}, "geometry": {"type": "Point", "coordinates": [-112.68572876335256, -58.36765289539371]}}, {"type": "Feature", "properties": {"norad_id": 34097, "name": "IRIDIUM 33 DEB", "group": "iridium-33-debris", "lat": -66.1587522733896, "lon": -175.22440205219436, "alt_km": 768.8837001743404, "timestamp": "2025-12-24T16:52:41.921233+00:00", "meta": {"OBJECT_NAME": "IRIDIUM 33 DEB", "OBJECT_ID": "1997-051DG", "EPOCH": "2025-12-24T00:39:48.601440", "MEAN_MOTION": 14.34864137, "ECCENTRICITY": 0.00814826, "INCLINATION": 86.2003, "RA_OF_ASC_NODE": 356.4244, "ARG_OF_PERICENTER": 325.2171, "MEAN_ANOMALY": 34.3712, "EPHEMERIS_TYPE": 0, "CLASSIFICATION_TYPE": "U", "NORAD_CAT_ID": 34097, "ELEMENT_SET_NO": 999, "REV_AT_EPOCH": 87281, "BSTAR": 0.0015312665, "MEAN_MOTION_DOT": 4.532e-05, "MEAN_MOTION_DDOT": 0}, "tle": {"line1": "1 34097U 97051DG  25358.02764585  .00004532  00000+0  15313-2 0  9993", "line2": "2 34097  86.2003 356.4244 0081482 325.2171  34.3712 14.34864137872813"}}, "geometry": {"type": "Point", "coordinates": [-175.22440205219436, -66.1587522733896]}}, {"type": "Feature", "properties": {"norad_id": 34145, "name": "IRIDIUM 33 DEB", "group": "iridium-33-debris", "lat": 59.76543850516932, "lon": 140.6719406887158, "alt_km": 727.6003770804027, "timestamp": "2025-12-24T16:52:41.921244+00:00", "meta": {"OBJECT_NAME": "IRIDIUM 33 DEB", "OBJECT_ID": "1997-051DY", "EPOCH": "2025-12-23T08:41:39.975936", "MEAN_MOTION": 14.42361739, "ECCENTRICITY": 0.00555944, "INCLINATION": 86.2126, "RA_OF_ASC_NODE": 327.7951, "ARG_OF_PERICENTER": 60.0799, "MEAN_ANOMALY": 300.5906, "EPHEMERIS_TYPE": 0, "CLASSIFICATION_TYPE": "U", "NORAD_CAT_ID": 34145, "ELEMENT_SET_NO": 999, "REV_AT_EPOCH": 87791, "BSTAR": 0.0012419771, "MEAN_MOTION_DOT": 4.2e-05, "MEAN_MOTION_DDOT": 0}, "tle": {"line1": "1 34145U 97051DY  25357.36226824  .00004200  00000+0  12420-2 0  9990", "line2": "2 34145  86.2126 327.7951 0055594  60.0799 300.5906 14.42361739877912"}}, "geometry": {"type": "Point", "coordinates": [140.6719406887158, 59.76543850516932]}}, {"type": "Feature", "properties": {"norad_id": 34146, "name": "IRIDIUM 33 DEB", "group": "iridium-33-debris", "lat": 47.167994251060655, "lon": -11.465442840980945, "alt_km": 737.3828185487591, "timestamp": "2025-12-24T16:52:41.921254+00:00", "meta": {"OBJECT_NAME": "IRIDIUM 33 DEB", "OBJECT_ID": "1997-051DZ", "EPOCH": "2025-12-24T07:01:03.056736", "MEAN_MOTION": 14.49120494, "ECCENTRICITY": 0.00267715, "INCLINATION": 86.2841, "RA_OF_ASC_NODE": 344.6961, "ARG_OF_PERICENTER": 181.7389, "MEAN_ANOMALY": 243.8071, "EPHEMERIS_TYPE": 0, "CLASSIFICATION_TYPE": "U", "NORAD_CAT_ID": 34146, "ELEMENT_SET_NO": 999, "REV_AT_EPOCH": 88274, "BSTAR": 0.00090944311, "MEAN_MOTION_DOT": 3.492e-05, "MEAN_MOTION_DDOT": 0}, "tle": {"line1": "1 34146U 97051DZ  25358.29239649  .00003492  00000+0  90944-3 0  9993", "line2": "2 34146  86.2841 344.6961 0026771 181.7389 243.8071 14.49120494882744"}}, "geometry": {"type": "Point", "coordinates": [-11.465442840980945, 47.167994251060655]}}, {"type": "Feature", "properties": {"norad_id": 34159, "name": "IRIDIUM 33 DEB", "group": "iridium-33-debris", "lat": 27.497213039423848, "lon": 45.04372002584998, "alt_km": 777.0465910637431, "timestamp": "2025-12-24T16:52:41.921265+00:00", "meta": {"OBJECT_NAME": "IRIDIUM 33 DEB", "OBJECT_ID": "1997-051EN", "EPOCH": "2025-12-24T03:23:40.790976", "MEAN_MOTION": 14.38520476, "ECCENTRICITY": 0.00261498, "INCLINATION": 86.3488, "RA_OF_ASC_NODE": 43.3787, "ARG_OF_PERICENTER": 247.4355, "MEAN_ANOMALY": 112.4075, "EPHEMERIS_TYPE": 0, "CLASSIFICATION_TYPE": "U", "NORAD_CAT_ID": 34159, "ELEMENT_SET_NO": 999, "REV_AT_EPOCH": 88123, "BSTAR": 0.00037197532, "MEAN_MOTION_DOT": 1.16e-05, "MEAN_MOTION_DDOT": 0}, "tle": {"line1": "1 34159U 97051EN  25358.14144434  .00001160  00000+0  37198-3 0  9990", "line2": "2 34159  86.3488  43.3787 0026149 247.4355 112.4075 14.38520476881237"}}, "geometry": {"type": "Point", "coordinates": [45.04372002584998, 27.497213039423848]}}, {"type": "Feature", "properties": {"norad_id": 34350, "name": "IRIDIUM 33 DEB", "group": "iridium-33-debris", "lat": -7.697865964098708, "lon": -2.881981285470666, "alt_km": 749.254840324973, "timestamp": "2025-12-24T16:52:41.921279+00:00", "meta": {"OBJECT_NAME": "IRIDIUM 33 DEB", "OBJECT_ID": "1997-051ES", "EPOCH": "2025-12-24T00:32:43.402848", "MEAN_MOTION": 14.45412169, "ECCENTRICITY": 0.00234875, "INCLINATION": 86.3272, "RA_OF_ASC_NODE": 357.9107, "ARG_OF_PERICENTER": 100.6701, "MEAN_ANOMALY": 313.0828, "EPHEMERIS_TYPE": 0, "CLASSIFICATION_TYPE": "U", "NORAD_CAT_ID": 34350, "ELEMENT_SET_NO": 999, "REV_AT_EPOCH": 88456, "BSTAR": 0.00031816232, "MEAN_MOTION_DOT": 1.143e-05, "MEAN_MOTION_DDOT": 0}, "tle": {"line1": "1 34350U 97051ES  25358.02272457  .00001143  00000+0  31816-3 0  9999", "line2": "2 34350  86.3272 357.9107 0023487 100.6701 313.0828 14.45412169884569"}}, "geometry": {"type": "Point", "coordinates": [-2.881981285470666, -7.697865964098708]}}, {"type": "Feature", "properties": {"norad_id": 34366, "name": "IRIDIUM 33 DEB", "group": "iridium-33-debris", "lat": -25.382696185965646, "lon": 42.382504932460485, "alt_km": 727.8134966243861, "timestamp": "2025-12-24T16:52:41.921290+00:00", "meta": {"OBJECT_NAME": "IRIDIUM 33 DEB", "OBJECT_ID": "1997-051FJ", "EPOCH": "2025-12-24T02:15:45.126720", "MEAN_MOTION": 14.54140712, "ECCENTRICITY": 0.00230255, "INCLINATION": 86.3684, "RA_OF_ASC_NODE": 44.3742, "ARG_OF_PERICENTER": 104.3991, "MEAN_ANOMALY": 284.5234, "EPHEMERIS_TYPE": 0, "CLASSIFICATION_TYPE": "U", "NORAD_CAT_ID": 34366, "ELEMENT_SET_NO": 999, "REV_AT_EPOCH": 88347, "BSTAR": 0.00091699807, "MEAN_MOTION_DOT": 3.91e-05, "MEAN_MOTION_DDOT": 0}, "tle": {"line1": "1 34366U 97051FJ  25358.09427230  .00003910  00000+0  91700-3 0  9996", "line2": "2 34366  86.3684  44.3742 0023025 104.3991 284.5234 14.54140712883479"}}, "geometry": {"type": "Point", "coordinates": [42.382504932460485, -25.382696185965646]}}]}